IRIDIUM 150             
1 43257U 18030J   25079.51323051  .00000601  00000+0  20745-3 0  9993
2 43257  86.3942 120.1552 0002015  91.3816 268.7610 14.34219434365152
IRIDIUM 143             
1 43258U 18030K   25078.72675078  .00000665  00000+0  23032-3 0  9997
2 43258  86.3948 120.5589 0001841  89.6513 270.4894 14.34219757364952
IRIDIUM 161             
1 43478U 18047C   25079.46798179  .00000366  00000+0  10284-3 0  9992
2 43478  86.4429 278.0488 0002112  90.5785 269.5657 14.43283707359699
IRIDIUM 152             
1 43479U 18047D   25078.90877520  .00000024  00000+0  14394-5 0  9998
2 43479  86.3903 278.1427 0002073  88.6828 271.4605 14.34217738357371
IRIDIUM 147             
1 43480U 18047E   25079.47326561  .00000025  00000+0  17727-5 0  9991
2 43480  86.3907 277.9035 0002109  95.0713 265.0724 14.34217862357452
IRIDIUM 110             
1 43481U 18047F   25079.06099812  .00000047  00000+0  95800-5 0  9995
2 43481  86.3909 278.1565 0002549  91.2164 268.9324 14.34217942357381
IRIDIUM 162             
1 43482U 18047G   25079.46168237  .00000368  00000+0  10349-3 0  9997
2 43482  86.4428 277.9478 0002346  82.6438 277.5029 14.43278187359683
IRIDIUM 160             
1 43569U 18061A   25079.00683247  .00000289  00000+0  96015-4 0  9999
2 43569  86.3930 246.5272 0002264  95.1244 265.0210 14.34218732348270
